#dP2019 12 23  0  0  0.00000000      96 __u+U ITR00 FIT  IAC
## 2085  86400.00000000   900.00000000 58840 0.0000000000000
+  115   C01C02C03C04C05C06C07C08C09C10C11C12C13C14C16C18C19
+        C20C21C22C23C24C25C26C27C28C29C30C32C33C34C35C36C37
+        E01E02E03E04E05E07E08E09E11E12E13E14E15E18E19E21E24
+        E25E26E27E30E31E33E36G01G02G03G04G05G06G07G08G09G10
+        G11G12G13G14G15G16G17G18G19G20G21G22G23G24G25G26G27
+        G28G29G30G31G32J01J02J03J07R01R02R03R05R07R08R09R11
+        R12R13R14R15R16R17R18R19R20R21R22R23R26  0  0  0  0
++        13 13 13 13 13  8  9  8  8  8  8  7  8  8  8 15  8
++         8  8  7  8  7  8  8  8  8  8  8  8  8  8  8  8  8
++         4  4  4  4  4  4  4  4  4  4  4  4  4  4  5  4  4
++         4  4  4  4  4  4  4  3  3  3  4  3  3  3  3  3  3
++         3  3  3  3  3  3  3  4  3  3  3  3  3  3  3  3  3
++         3  3  3  3  3  8  8  8 15  6  5  5  5  5  5  5  5
++         5  6  5  5  6  5  5  6  6  5  5  5  8  0  0  0  0
%c M  cc GPS ccc cccc cccc cccc cccc ccccc ccccc ccccc ccccc
%c cc cc ccc ccc cccc cccc cccc cccc ccccc ccccc ccccc ccccc
%f  0.0000000  0.000000000  0.00000000000  0.000000000000000
%f  0.0000000  0.000000000  0.00000000000  0.000000000000000
%i    0    0    0    0      0      0      0      0         0
%i    0    0    0    0      0      0      0      0         0
/* INFORMATION & ANALYSIS CENTER (IAC)            RAPID DATA
/* S/V CLOCKS ARE ALIGNED TO GNSS TIME                      
/* G:C1WC2W R:C1PC2P E:C1XC5X C:C2IC6I J:C1CC2S             
/* PCV:IGS14_2082 OL/AL:FES2004  NONE     YN ORB:CoN CLK:CoN
*  2019 12 23 10  0  0.00000000
PC01 -32321.364550  27091.640007    169.152639    293.354458
PC02   4375.286111  41903.475480   -997.744547    658.422728
PC03 -14720.177114  39488.946023   -774.427461    283.185083
PC04 -39626.445236  14455.545858    -72.201778   -430.800630
PC05  21885.292552  36002.675088  -1042.923772    -68.490879
PC06 -20578.733794  36407.649724   3613.412634    278.031433
PC07  -8047.538736  30234.093301  28649.780779    150.355621
PC08 -19188.092153  18853.580442 -32478.671970    -62.830040
PC09 -10340.401584  36648.246072  17926.665973    208.232477
PC10   5738.060411  37559.700753  18875.614482   -488.593535
PC11   3698.061083 -19390.610641  19765.953239    -77.189959
PC12  19405.758134 -19482.326999   4689.859838    304.882972
PC13  -2410.952808  22969.029964 -35188.957322    169.900819
PC14  -3464.160694 -27621.858834   1513.643183    379.789175
PC16 -19001.017268  37144.220994   5393.663568   -904.819769
PC18   7314.677272  41520.370769    452.274575    146.439976
PC19   9461.968175  25180.750355   7462.866654    278.177420
PC20  -2530.530925  26051.460291  -9704.267575   -454.935634
PC21  13441.054442 -11379.872141  21652.094433     83.677989
PC22  16146.261472   9706.318571  20591.467926   -559.277386
PC23 -26307.393189  -9174.887270   1650.268186   -868.654846
PC24   4360.915424 -15593.063720 -22733.387145   -888.021226
PC25 -16368.921904 -17119.907645 -14774.915951   -456.663249
PC26  21017.145623  -5463.138676 -17510.167322    506.921330
PC27 -23451.667178  14474.304482   4323.959681    247.562185
PC28 -20411.676831   -793.966995  19025.109995    238.571797
PC29   6053.156288  15321.076881 -22524.968132    163.587809
PC30 -12174.571086  21688.432257 -12632.462626    244.575890
PC32 -13359.908170  11496.898275 -21629.754232   -854.772515
PC33  -9538.855298 -25160.223529  -7372.949914   -700.689849
PC34  11937.583013 -21679.978513  12914.555493   -333.069542
PC35  20408.809872    224.290631 -19037.898045   -688.376702
PC36  15760.147397  17537.616746  14950.966691   -865.661586
PC37 -21568.514256   4539.390778  17146.675704   -945.070797
PE01  -6328.084441 -22938.720374 -17606.363972   -758.269692
PE02   6374.348992  22948.277396  17568.341865    100.668628
PE03  -3292.377779  28778.682144   6120.086018   -246.972842
PE04 -10284.149849 -18439.450899 -20749.196151   -430.826938
PE05 -15074.926524  22343.271233 -12243.782059   -420.389159
PE07  17972.621568  -2889.613542  23336.995241   -316.606812
PE08  10392.475388  18184.895799  20914.717683   6245.214047
PE09 -17832.164394   3153.953396 -23420.290356   6212.304822
PE11 -28623.338208   3222.229047   6799.507997    477.485092
PE12 -17208.164280 -10221.964434  21813.101384   6037.646256
PE13  28573.745276  -3237.688938  -7000.221531    396.651655
PE14 -16549.909399   -820.181335  16911.523853   -840.902364
PE15  17474.999444   9916.389377 -21720.836911    883.390220
PE18  20202.054748   6590.766701 -24461.461005   -936.944329
PE19   4761.415200 -28920.178471  -4154.921870     -2.303101
PE21  11726.893810 -11416.538210 -24662.121010   -572.909958
PE24 -23040.666819  -6997.179058  17224.901032   5701.390708
PE25 -11821.392072  11327.738770  24668.687094   -499.182822
PE26  22826.038522 -14520.518155  12011.935309   3731.306096
PE27  23041.040322   6879.969202 -17247.371207    319.138994
PE30  20631.006944  21210.544614    333.537128   4283.233303
PE31 -20799.607582 -21063.111728   -245.078346   -471.033888
PE33   3888.821848 -17277.386169  23730.597870   -471.361373
PE36 -22935.879202  14496.183712 -11823.192473    620.712991
PG01  12571.602706  13620.422551 -19347.805969   -238.824326
PG02  11554.752315 -14244.008180  19805.738242   -371.826767
PG03  13459.958475  22872.560741   1869.678114    -58.083043
PG04   5068.072922  17109.216925  19674.325054    -24.207305
PG05   1113.910013 -21078.999783  15864.332546     -5.082275
PG06  23013.560617  -6828.051381  11452.337242   -161.706409
PG07  25142.816936   6357.444896   7084.834849   -176.095938
PG08  -2971.376040  22555.948455 -13475.667325    -17.721107
PG09  13564.032694   7279.347434  21587.059976   -115.029899
PG10 -16390.285624    -28.607144 -20876.607160   -182.685576
PG11   9187.338390  13867.772413 -21167.019241   -411.237673
PG12  -9237.601680 -24911.534957  -2360.760580    170.211722
PG13  11711.631929 -22556.548100  -7699.347048    -24.830771
PG14 -18193.047321  18473.284790  -4962.763761    -43.181143
PG15   -448.675294 -22568.078129 -13989.237132   -263.724373
PG16  -3843.242598  19884.706770  16742.261226   -105.918603
PG17  19310.508614 -10765.591808 -14241.078391    185.714937
PG18   3453.800379  15377.820796 -21891.431409    108.549650
PG19  19672.575351 -15843.257274  -8524.848668   -222.501414
PG20 -20074.366849  -9441.530677 -14846.654476    527.696481
PG21 -25838.155057  -3233.140499   5368.939690    -66.667038
PG22   9943.299788  23926.442526  -5866.451175   -778.914492
PG23   7664.343953  15736.762871  20222.252366   -147.802651
PG24 -10766.131643 -14391.888427 -19843.953406     -6.601792
PG25 -17031.898549 -17894.543401   9884.167153    -17.126416
PG26 -10196.053494  12562.547762  21009.558022    111.702629
PG27 -11877.596411  23313.937603  -3528.737974   -159.002274
PG28  15269.820719   -155.214844 -21114.009042    749.194119
PG29 -12069.541498  -8324.227018  22116.740636     11.258280
PG30  26288.835884  -1102.835926  -4303.820641   -112.349246
PG31 -21905.287736   7811.014869  13217.224093    -11.682833
PG32 -19054.979163  11650.466439 -14210.340264    163.811910
PJ01 -19843.626735  28084.656068 -19825.151006   -327.010099
PJ02 -26370.573868  20761.723028  30355.548546     -0.436365
PJ03 -33220.566118  25890.210585   6121.581419    -10.334843
PJ07 -25334.641666  33703.701397     -4.013400     -0.063263
PR01  -1286.145731 -25272.229262  -3170.006227     54.548193
PR02  -9188.971932 -12524.768784 -20219.971542    403.736041
PR03 -10727.898586   6773.849889 -22087.901194      6.951219
PR05   2060.156490  24730.972023   5850.013204     41.745527
PR07  10691.517207  -7440.301255  21966.365386    -31.093074
PR08   6088.971909 -21988.328491  11466.383219     13.577527
PR09  22438.353822  11655.197910  -3604.005229    107.753321
PR11   4756.500246 -10078.961373 -22927.741506     15.668172
PR12 -11567.562622 -16007.790895 -16132.369369     90.403243
PR13 -22005.765879 -12893.431664    500.633136    -32.576598
PR14 -19181.488150  -2449.982235  16643.888332     46.335095
PR15  -5511.727284   9439.255472  23068.774292    105.441977
PR16  11981.136689  15897.351324  15851.124811     -0.604539
PR17 -23003.369806   8888.053171   6618.618963    286.194075
PR18 -17933.016047  14838.537751 -10355.705174     18.963285
PR19  -3899.390516  12823.726584 -21697.382057    -70.344022
PR20  14905.735197   2767.214000 -20512.309194   -399.598251
PR21  23013.325769  -9310.070038  -5788.257510    -93.477196
PR22  16085.817666 -15048.097125  12977.326978     -6.685547
PR23  -2632.776725 -10372.565271  23153.565208    275.034858
PR26  11710.028469   5025.998742 -22074.012055     15.301053
EOF
